*******************************************************************************
Ephemeris / WWW_USER Mon Jul 15 19:24:54 2024 Pasadena, USA      / Horizons    
*******************************************************************************
Target body name: (2018 RB1)                      {source: JPL#5}
Center body name: Earth (399)                     {source: DE441}
Center-site name: Gemini South Obs., Cerro Pachon
*******************************************************************************
Start time      : A.D. 2018-Oct-27 23:10:00.0000 UT      
Stop  time      : A.D. 2018-Oct-28 09:43:00.0000 UT      
Step-size       : 1 minutes
*******************************************************************************
Target pole/equ : undefined
Target radii    : undefined                                                    
Center geodetic : 289.2634, -30.2406227, 2.71233  {E-lon(deg),Lat(deg),Alt(km)}
Center cylindric: 289.2634,5517.21435,-3194.81213 {E-lon(deg),Dxy(km),Dz(km)}
Center pole/equ : ITRF93                          {East-longitude positive}
Center radii    : 6378.137, 6378.137, 6356.752 km {Equator_a, b, pole_c}       
Target primary  : Sun
Vis. interferer : MOON (R_eq= 1737.400) km        {source: DE441}
Rel. light bend : Sun                             {source: DE441}
Rel. lght bnd GM: 1.3271E+11 km^3/s^2                                          
Small-body perts: Yes                             {source: SB441-N16}
Atmos refraction: NO (AIRLESS)
RA format       : HMS
Time format     : CAL 
Calendar mode   : Mixed Julian/Gregorian
RTS-only print  : NO       
EOP file        : eop.240715.p241008                                           
EOP coverage    : DATA-BASED 1962-JAN-20 TO 2024-JUL-15. PREDICTS-> 2024-OCT-07
Units conversion: 1 au= 149597870.700 km, c= 299792.458 km/s, 1 day= 86400.0 s 
Table cut-offs 1: Elevation (-90.0deg=NO ),Airmass (>38.000=NO), Daylight (YES)
Table cut-offs 2: Solar elongation (  0.0,180.0=NO ),Local Hour Angle( 0.0=NO )
Table cut-offs 3: RA/DEC angular rate (     0.0=NO )                           
*******************************************************************************
Initial IAU76/J2000 heliocentric ecliptic osculating elements (au, days, deg.):
  EPOCH=  2458368.5 ! 2018-Sep-07.00 (TDB)         Residual RMS= .299          
   EC= .2816093255492492   QR= .7991213126369837   TP= 2458438.7854507864      
   OM= 166.9631715555783   W=  267.8210074013559   IN= 5.127543488636634       
  Equivalent ICRF heliocentric cartesian coordinates (au, au/d):
   X= 9.883258176612897E-01  Y=-2.654573099408967E-01  Z=-1.095366816313374E-01
  VX= 1.112505236628486E-04 VY= 1.667631342697191E-02 VZ= 5.559084906068471E-03
Asteroid physical parameters (km, seconds, rotational period in hours):        
   GM= n.a.                RAD= n.a.               ROTPER= n.a.                
   H= 27.9                 G= .150                 B-V= n.a.                   
                           ALBEDO= n.a.            STYP= n.a.                  
*******************************************************************************
 Date__(UT)__HR:MN     R.A._________(ICRF)_________DEC
******************************************************
$$SOE
 2018-Oct-28 09:25 Nm  11 16 44.528092 -10 45 51.14116
 2018-Oct-28 09:26 Nm  11 16 44.593896 -10 45 51.09499
 2018-Oct-28 09:27 Cm  11 16 44.659667 -10 45 51.04878
 2018-Oct-28 09:28 Cm  11 16 44.725405 -10 45 51.00253
 2018-Oct-28 09:29 Cm  11 16 44.791112 -10 45 50.95624
 2018-Oct-28 09:30 Cm  11 16 44.856785 -10 45 50.90991
 2018-Oct-28 09:31 Cm  11 16 44.922427 -10 45 50.86353
 2018-Oct-28 09:32 Cm  11 16 44.988036 -10 45 50.81710
 2018-Oct-28 09:33 Cm  11 16 45.053613 -10 45 50.77064
 2018-Oct-28 09:34 Cm  11 16 45.119157 -10 45 50.72412
 2018-Oct-28 09:35 Cm  11 16 45.184670 -10 45 50.67757
 2018-Oct-28 09:36 Cm  11 16 45.250151 -10 45 50.63097
 2018-Oct-28 09:37 Cm  11 16 45.315600 -10 45 50.58432
 2018-Oct-28 09:38 Cm  11 16 45.381018 -10 45 50.53762
 2018-Oct-28 09:39 Cm  11 16 45.446403 -10 45 50.49088
 2018-Oct-28 09:40 Cm  11 16 45.511758 -10 45 50.44409
 2018-Oct-28 09:41 Cm  11 16 45.577080 -10 45 50.39726
 2018-Oct-28 09:42 Cm  11 16 45.642372 -10 45 50.35037
 2018-Oct-28 09:43 Cm  11 16 45.707632 -10 45 50.30344
